[{"OBJECT_NAME":"LIME","OBJECT_ID":"2025-009AR","EPOCH":"2026-03-09T17:44:15.459648","MEAN_MOTION":15.28703313,"ECCENTRICITY":0.00016347,"INCLINATION":97.3985,"RA_OF_ASC_NODE":151.4831,"ARG_OF_PERICENTER":35.9029,"MEAN_ANOMALY":324.232,"EPHEMERIS_TYPE":0,"CLASSIFICATION_TYPE":"U","NORAD_CAT_ID":62648,"ELEMENT_SET_NO":999,"REV_AT_EPOCH":6376,"BSTAR":0.00047722827,"MEAN_MOTION_DOT":0.00013254,"MEAN_MOTION_DDOT":0},{"OBJECT_NAME":"STARLINK-36501","OBJECT_ID":"2026-002Y","EPOCH":"2026-03-09T02:34:42.746016","MEAN_MOTION":15.27611343,"ECCENTRICITY":0.00017045,"INCLINATION":43.0019,"RA_OF_ASC_NODE":328.2274,"ARG_OF_PERICENTER":276.0429,"MEAN_ANOMALY":84.0228,"EPHEMERIS_TYPE":0,"CLASSIFICATION_TYPE":"U","NORAD_CAT_ID":67327,"ELEMENT_SET_NO":999,"REV_AT_EPOCH":1099,"BSTAR":0.0010137739,"MEAN_MOTION_DOT":0.00027767,"MEAN_MOTION_DDOT":0}]
