LIME                    
1 62648U 25009AR  26068.73906781  .00013254  00000+0  47723-3 0  9995
2 62648  97.3985 151.4831 0001635  35.9029 324.2320 15.28703313 63766
STARLINK-36501          
1 67327U 26002Y   26068.10743919  .00027767  00000+0  10138-2 0  9994
2 67327  43.0019 328.2274 0001704 276.0429  84.0228 15.27611343 10990
